INTELSAT 25 (IS-25)     
1 33153U 08034A   26095.23962319 -.00000222  00000+0  00000+0 0  9992
2 33153   2.5195  81.1812 0002880 254.0259 273.1008  1.00271012 64965
GALAXY 19 (G-19)        
1 33376U 08045A   26095.22662611 -.00000138  00000+0  00000+0 0  9998
2 33376   0.0197 245.9004 0002933 137.6727 154.5489  1.00272712 64171
FM-5                    
1 35493U 09034A   26095.13378222 -.00000199  00000+0  00000+0 0  9998
2 35493   0.0234 257.7666 0000253  40.7236 216.9527  1.00271523 45918
INTELSAT 14 (IS-14)     
1 36097U 09064A   26095.16561252 -.00000272  00000+0  00000+0 0  9994
2 36097   0.0452  70.8294 0002577 313.5318 183.7367  1.00272613 59879
INTELSAT 15 (IS-15)     
1 36106U 09067A   26095.12011235  .00000000  00000+0  00000+0 0  9993
2 36106   0.0164 219.9402 0002519 171.1396 290.7380  1.00269913 40498
DIRECTV 12              
1 36131U 09075A   26095.13933712 -.00000103  00000+0  00000+0 0  9999
2 36131   0.0296 353.7039 0000503  51.9570  95.2181  1.00272201 45828
INTELSAT 16 (IS-16)     
1 36397U 10006A   26095.14161852  .00000000  00000+0  00000+0 0  9993
2 36397   0.0121 219.8208 0002161 181.8726 126.5381  1.00269963 58923
XM-5                    
1 37185U 10053A   26095.22298609 -.00000022  00000+0  00000+0 0  9996
2 37185   0.0675 269.4406 0003944 267.3159 341.8490  1.00272698 56755
INTELSAT 17 (IS-17)     
1 37238U 10065B   26095.11629900  .00000000  00000+0  00000+0 0  9993
2 37238   0.0128 186.3273 0002452 198.5564 276.3992  1.00271590 52513
INTELSAT 28 (IS-28)     
1 37392U 11016A   26095.22792115 -.00000223  00000+0  00000+0 0  9990
2 37392   1.6176  83.5051 0004539 298.2809 222.0920  1.00271878 52556
INTELSAT 18 (IS-18)     
1 37834U 11056A   26095.06741880  .00000054  00000+0  00000+0 0  9991
2 37834   0.0155 249.4731 0001983 128.2288  19.9461  1.00274034 53076
INTELSAT 22 (IS-22)     
1 38098U 12011A   26095.11751234 -.00000057  00000+0  00000+0 0  9990
2 38098   0.0110 215.6847 0001678 164.1870 287.9568  1.00271524  6456
INTELSAT 19 (IS-19)     
1 38356U 12030A   26095.13614575 -.00000056  00000+0  00000+0 0  9995
2 38356   0.0253 102.5391 0003082 274.9099  31.0005  1.00270161 49719
INTELSAT 20 (IS-20)     
1 38740U 12043A   26095.18814596 -.00000023  00000+0  00000+0 0  9990
2 38740   0.0187 134.9766 0002449  34.6049 160.1349  1.00269642 50011
INTELSAT 21 (IS-21)     
1 38749U 12045A   26095.09177222 -.00000284  00000+0  00000+0 0  9998
2 38749   0.0182 208.7390 0001952 184.6489 135.0477  1.00272496 49797
INTELSAT 23 (IS-23)     
1 38867U 12057A   26094.95007807 -.00000284  00000+0  00000+0 0  9997
2 38867   0.0163 248.1399 0000634 160.5936  73.5248  1.00269209 49228
FM-6                    
1 39360U 13058A   26095.11882611 -.00000016  00000+0  00000+0 0  9994
2 39360   0.0164 133.4784 0003263  52.9415 293.4451  1.00278332 45344
