[{"OBJECT_NAME":"INTELSAT 25 (IS-25)","OBJECT_ID":"2008-034A","EPOCH":"2026-04-05T05:45:03.443616","MEAN_MOTION":1.00271012,"ECCENTRICITY":0.00028806,"INCLINATION":2.5195,"RA_OF_ASC_NODE":81.1812,"ARG_OF_PERICENTER":254.0259,"MEAN_ANOMALY":273.1008,"EPHEMERIS_TYPE":0,"CLASSIFICATION_TYPE":"U","NORAD_CAT_ID":33153,"ELEMENT_SET_NO":999,"REV_AT_EPOCH":6496,"BSTAR":0,"MEAN_MOTION_DOT":-2.22e-6,"MEAN_MOTION_DDOT":0},{"OBJECT_NAME":"GALAXY 19 (G-19)","OBJECT_ID":"2008-045A","EPOCH":"2026-04-05T05:26:20.495904","MEAN_MOTION":1.00272712,"ECCENTRICITY":0.0002933,"INCLINATION":0.0197,"RA_OF_ASC_NODE":245.9004,"ARG_OF_PERICENTER":137.6727,"MEAN_ANOMALY":154.5489,"EPHEMERIS_TYPE":0,"CLASSIFICATION_TYPE":"U","NORAD_CAT_ID":33376,"ELEMENT_SET_NO":999,"REV_AT_EPOCH":6417,"BSTAR":0,"MEAN_MOTION_DOT":-1.38e-6,"MEAN_MOTION_DDOT":0},{"OBJECT_NAME":"FM-5","OBJECT_ID":"2009-034A","EPOCH":"2026-04-05T03:12:38.783808","MEAN_MOTION":1.00271523,"ECCENTRICITY":2.533e-5,"INCLINATION":0.0234,"RA_OF_ASC_NODE":257.7666,"ARG_OF_PERICENTER":40.7236,"MEAN_ANOMALY":216.9527,"EPHEMERIS_TYPE":0,"CLASSIFICATION_TYPE":"U","NORAD_CAT_ID":35493,"ELEMENT_SET_NO":999,"REV_AT_EPOCH":4591,"BSTAR":0,"MEAN_MOTION_DOT":-1.99e-6,"MEAN_MOTION_DDOT":0},{"OBJECT_NAME":"INTELSAT 14 (IS-14)","OBJECT_ID":"2009-064A","EPOCH":"2026-04-05T03:58:28.921728","MEAN_MOTION":1.00272613,"ECCENTRICITY":0.00025776,"INCLINATION":0.0452,"RA_OF_ASC_NODE":70.8294,"ARG_OF_PERICENTER":313.5318,"MEAN_ANOMALY":183.7367,"EPHEMERIS_TYPE":0,"CLASSIFICATION_TYPE":"U","NORAD_CAT_ID":36097,"ELEMENT_SET_NO":999,"REV_AT_EPOCH":5987,"BSTAR":0,"MEAN_MOTION_DOT":-2.72e-6,"MEAN_MOTION_DDOT":0},{"OBJECT_NAME":"INTELSAT 15 (IS-15)","OBJECT_ID":"2009-067A","EPOCH":"2026-04-05T02:52:57.707040","MEAN_MOTION":1.00269913,"ECCENTRICITY":0.00025198,"INCLINATION":0.0164,"RA_OF_ASC_NODE":219.9402,"ARG_OF_PERICENTER":171.1396,"MEAN_ANOMALY":290.738,"EPHEMERIS_TYPE":0,"CLASSIFICATION_TYPE":"U","NORAD_CAT_ID":36106,"ELEMENT_SET_NO":999,"REV_AT_EPOCH":4049,"BSTAR":0,"MEAN_MOTION_DOT":0,"MEAN_MOTION_DDOT":0},{"OBJECT_NAME":"DIRECTV 12","OBJECT_ID":"2009-075A","EPOCH":"2026-04-05T03:20:38.727168","MEAN_MOTION":1.00272201,"ECCENTRICITY":5.036e-5,"INCLINATION":0.0296,"RA_OF_ASC_NODE":353.7039,"ARG_OF_PERICENTER":51.957,"MEAN_ANOMALY":95.2181,"EPHEMERIS_TYPE":0,"CLASSIFICATION_TYPE":"U","NORAD_CAT_ID":36131,"ELEMENT_SET_NO":999,"REV_AT_EPOCH":4582,"BSTAR":0,"MEAN_MOTION_DOT":-1.03e-6,"MEAN_MOTION_DDOT":0},{"OBJECT_NAME":"INTELSAT 16 (IS-16)","OBJECT_ID":"2010-006A","EPOCH":"2026-04-05T03:23:55.840128","MEAN_MOTION":1.00269963,"ECCENTRICITY":0.00021611,"INCLINATION":0.0121,"RA_OF_ASC_NODE":219.8208,"ARG_OF_PERICENTER":181.8726,"MEAN_ANOMALY":126.5381,"EPHEMERIS_TYPE":0,"CLASSIFICATION_TYPE":"U","NORAD_CAT_ID":36397,"ELEMENT_SET_NO":999,"REV_AT_EPOCH":5892,"BSTAR":0,"MEAN_MOTION_DOT":0,"MEAN_MOTION_DDOT":0},{"OBJECT_NAME":"XM-5","OBJECT_ID":"2010-053A","EPOCH":"2026-04-05T05:21:05.998176","MEAN_MOTION":1.00272698,"ECCENTRICITY":0.00039448,"INCLINATION":0.0675,"RA_OF_ASC_NODE":269.4406,"ARG_OF_PERICENTER":267.3159,"MEAN_ANOMALY":341.849,"EPHEMERIS_TYPE":0,"CLASSIFICATION_TYPE":"U","NORAD_CAT_ID":37185,"ELEMENT_SET_NO":999,"REV_AT_EPOCH":5675,"BSTAR":0,"MEAN_MOTION_DOT":-2.2e-7,"MEAN_MOTION_DDOT":0},{"OBJECT_NAME":"INTELSAT 17 (IS-17)","OBJECT_ID":"2010-065B","EPOCH":"2026-04-05T02:47:28.233600","MEAN_MOTION":1.0027159,"ECCENTRICITY":0.00024522,"INCLINATION":0.0128,"RA_OF_ASC_NODE":186.3273,"ARG_OF_PERICENTER":198.5564,"MEAN_ANOMALY":276.3992,"EPHEMERIS_TYPE":0,"CLASSIFICATION_TYPE":"U","NORAD_CAT_ID":37238,"ELEMENT_SET_NO":999,"REV_AT_EPOCH":5251,"BSTAR":0,"MEAN_MOTION_DOT":0,"MEAN_MOTION_DDOT":0},{"OBJECT_NAME":"INTELSAT 28 (IS-28)","OBJECT_ID":"2011-016A","EPOCH":"2026-04-05T05:28:12.387360","MEAN_MOTION":1.00271878,"ECCENTRICITY":0.00045399,"INCLINATION":1.6176,"RA_OF_ASC_NODE":83.5051,"ARG_OF_PERICENTER":298.2809,"MEAN_ANOMALY":222.092,"EPHEMERIS_TYPE":0,"CLASSIFICATION_TYPE":"U","NORAD_CAT_ID":37392,"ELEMENT_SET_NO":999,"REV_AT_EPOCH":5255,"BSTAR":0,"MEAN_MOTION_DOT":-2.23e-6,"MEAN_MOTION_DDOT":0},{"OBJECT_NAME":"INTELSAT 18 (IS-18)","OBJECT_ID":"2011-056A","EPOCH":"2026-04-05T01:37:04.984320","MEAN_MOTION":1.00274034,"ECCENTRICITY":0.00019834,"INCLINATION":0.0155,"RA_OF_ASC_NODE":249.4731,"ARG_OF_PERICENTER":128.2288,"MEAN_ANOMALY":19.9461,"EPHEMERIS_TYPE":0,"CLASSIFICATION_TYPE":"U","NORAD_CAT_ID":37834,"ELEMENT_SET_NO":999,"REV_AT_EPOCH":5307,"BSTAR":0,"MEAN_MOTION_DOT":5.4e-7,"MEAN_MOTION_DDOT":0},{"OBJECT_NAME":"INTELSAT 22 (IS-22)","OBJECT_ID":"2012-011A","EPOCH":"2026-04-05T02:49:13.066176","MEAN_MOTION":1.00271524,"ECCENTRICITY":0.00016781,"INCLINATION":0.011,"RA_OF_ASC_NODE":215.6847,"ARG_OF_PERICENTER":164.187,"MEAN_ANOMALY":287.9568,"EPHEMERIS_TYPE":0,"CLASSIFICATION_TYPE":"U","NORAD_CAT_ID":38098,"ELEMENT_SET_NO":999,"REV_AT_EPOCH":645,"BSTAR":0,"MEAN_MOTION_DOT":-5.7e-7,"MEAN_MOTION_DDOT":0},{"OBJECT_NAME":"INTELSAT 19 (IS-19)","OBJECT_ID":"2012-030A","EPOCH":"2026-04-05T03:16:02.992800","MEAN_MOTION":1.00270161,"ECCENTRICITY":0.0003082,"INCLINATION":0.0253,"RA_OF_ASC_NODE":102.5391,"ARG_OF_PERICENTER":274.9099,"MEAN_ANOMALY":31.0005,"EPHEMERIS_TYPE":0,"CLASSIFICATION_TYPE":"U","NORAD_CAT_ID":38356,"ELEMENT_SET_NO":999,"REV_AT_EPOCH":4971,"BSTAR":0,"MEAN_MOTION_DOT":-5.6e-7,"MEAN_MOTION_DDOT":0},{"OBJECT_NAME":"INTELSAT 20 (IS-20)","OBJECT_ID":"2012-043A","EPOCH":"2026-04-05T04:30:55.810944","MEAN_MOTION":1.00269642,"ECCENTRICITY":0.00024497,"INCLINATION":0.0187,"RA_OF_ASC_NODE":134.9766,"ARG_OF_PERICENTER":34.6049,"MEAN_ANOMALY":160.1349,"EPHEMERIS_TYPE":0,"CLASSIFICATION_TYPE":"U","NORAD_CAT_ID":38740,"ELEMENT_SET_NO":999,"REV_AT_EPOCH":5001,"BSTAR":0,"MEAN_MOTION_DOT":-2.3e-7,"MEAN_MOTION_DDOT":0},{"OBJECT_NAME":"INTELSAT 21 (IS-21)","OBJECT_ID":"2012-045A","EPOCH":"2026-04-05T02:12:09.119808","MEAN_MOTION":1.00272496,"ECCENTRICITY":0.00019521,"INCLINATION":0.0182,"RA_OF_ASC_NODE":208.739,"ARG_OF_PERICENTER":184.6489,"MEAN_ANOMALY":135.0477,"EPHEMERIS_TYPE":0,"CLASSIFICATION_TYPE":"U","NORAD_CAT_ID":38749,"ELEMENT_SET_NO":999,"REV_AT_EPOCH":4979,"BSTAR":0,"MEAN_MOTION_DOT":-2.84e-6,"MEAN_MOTION_DDOT":0},{"OBJECT_NAME":"INTELSAT 23 (IS-23)","OBJECT_ID":"2012-057A","EPOCH":"2026-04-04T22:48:06.745248","MEAN_MOTION":1.00269209,"ECCENTRICITY":6.344e-5,"INCLINATION":0.0163,"RA_OF_ASC_NODE":248.1399,"ARG_OF_PERICENTER":160.5936,"MEAN_ANOMALY":73.5248,"EPHEMERIS_TYPE":0,"CLASSIFICATION_TYPE":"U","NORAD_CAT_ID":38867,"ELEMENT_SET_NO":999,"REV_AT_EPOCH":4922,"BSTAR":0,"MEAN_MOTION_DOT":-2.84e-6,"MEAN_MOTION_DDOT":0},{"OBJECT_NAME":"FM-6","OBJECT_ID":"2013-058A","EPOCH":"2026-04-05T02:51:06.575904","MEAN_MOTION":1.00278332,"ECCENTRICITY":0.0003263,"INCLINATION":0.0164,"RA_OF_ASC_NODE":133.4784,"ARG_OF_PERICENTER":52.9415,"MEAN_ANOMALY":293.4451,"EPHEMERIS_TYPE":0,"CLASSIFICATION_TYPE":"U","NORAD_CAT_ID":39360,"ELEMENT_SET_NO":999,"REV_AT_EPOCH":4534,"BSTAR":0,"MEAN_MOTION_DOT":-1.6e-7,"MEAN_MOTION_DDOT":0}]
